H1 CPF 01  gfz 2021 03 14 01  5731 tandemx   
H2 1003001  6202 36605    2021 03 14 00 59 42 2021 03 19 00 00 42   120 1 1  0 0 0
H9
10 0 59290   9342.000000  0   -4328611.075  -5346582.026    365854.933
10 0 59290   9462.000000  0   -4396645.743  -5148876.766   1263992.372
10 0 59290   9582.000000  0   -4383553.442  -4860661.554   2139869.245
10 0 59290   9702.000000  0   -4288024.583  -4488394.793   2978056.894
10 0 59290   9822.000000  0   -4110330.415  -4040029.185   3763795.103
10 0 59290   9942.000000  0   -3852340.336  -3524839.758   4483258.113
10 0 59290  10062.000000  0   -3517505.721  -2953226.816   5123800.988
10 0 59290  10182.000000  0   -3110812.201  -2336500.616   5674180.446
10 0 59290  10302.000000  0   -2638702.002  -1686653.900   6124749.072
10 0 59290  10422.000000  0   -2108967.884  -1016125.438   6467620.798
10 0 59290  10542.000000  0   -1530619.810   -337558.075   6696804.216
10 0 59290  10662.000000  0    -913727.430    336440.771   6808299.063
10 0 59290  10782.000000  0    -269244.669    993531.632   6800161.102
10 0 59290  10902.000000  0     391184.521   1621868.445   6672534.445
10 0 59290  11022.000000  0    1055436.225   2210312.181   6427649.269
10 0 59290  11142.000000  0    1711128.556   2748628.192   6069784.380
10 0 59290  11262.000000  0    2345851.579   3227664.933   5605197.451
10 0 59290  11382.000000  0    2947403.026   3639512.987   5042022.546
10 0 59290  11502.000000  0    3504026.035   3977640.208   4390132.719
10 0 59290  11622.000000  0    4004640.855   4236998.485   3660971.172
10 0 59290  11742.000000  0    4439070.318   4414104.899   2867355.869
10 0 59290  11862.000000  0    4798253.240   4507089.748   2023251.490
10 0 59290  11982.000000  0    5074435.425   4515712.584   1143521.279
10 0 59290  12102.000000  0    5261339.987   4441344.861    243659.467
10 0 59290  12222.000000  0    5354307.671   4286918.957   -660490.983
10 0 59290  12342.000000  0    5350403.750   4056845.049  -1553026.143
10 0 59290  12462.000000  0    5248491.075   3756898.561  -2418268.697
10 0 59290  12582.000000  0    5049266.721   3394080.624  -3241049.343
10 0 59290  12702.000000  0    4755261.716   2976456.974  -4006975.944
10 0 59290  12822.000000  0    4370804.364   2512978.872  -4702686.190
10 0 59290  12942.000000  0    3901948.369   2013288.958  -5316077.023
10 0 59290  13062.000000  0    3356369.132   1487519.354  -5836507.448
10 0 59290  13182.000000  0    2743230.460    946086.467  -6254973.579
10 0 59290  13302.000000  0    2073024.547    399486.049  -6564252.869
10 0 59290  13422.000000  0    1357390.511   -141906.722  -6759016.724
10 0 59290  13542.000000  0     608913.836   -668029.985  -6835914.307
10 0 59290  13662.000000  0    -159093.026  -1169318.073  -6793623.187
10 0 59290  13782.000000  0    -932821.377  -1636870.192  -6632868.324
10 0 59290  13902.000000  0   -1698208.267  -2062604.395  -6356412.101
10 0 59290  14022.000000  0   -2441186.533  -2439395.378  -5969011.893
10 0 59290  14142.000000  0   -3147937.748  -2761192.653  -5477346.675
10 0 59290  14262.000000  0   -3805147.016  -3023119.388  -4889914.321
10 0 59290  14382.000000  0   -4400255.830  -3221549.574  -4216896.085
10 0 59290  14502.000000  0   -4921705.776  -3354160.410  -3469990.309
10 0 59290  14622.000000  0   -5359169.673  -3419959.643  -2662217.642
10 0 59290  14742.000000  0   -5703764.490  -3419286.550  -1807698.863
10 0 59290  14862.000000  0   -5948239.784  -3353785.624   -921409.069
10 0 59290  14982.000000  0   -6087137.334  -3226353.512    -18912.784
10 0 59290  15102.000000  0   -6116917.251  -3041059.761    883914.889
10 0 59290  15222.000000  0   -6036046.864  -2803043.438   1771176.468
10 0 59290  15342.000000  0   -5845047.280  -2518386.887   2627242.241
10 0 59290  15462.000000  0   -5546498.547  -2193971.083   3437033.183
10 0 59290  15582.000000  0   -5145004.327  -1837316.654   4186294.530
10 0 59290  15702.000000  0   -4647113.262  -1456412.628   4861851.111
10 0 59290  15822.000000  0   -4061203.899  -1059540.074   5451838.300
10 0 59290  15942.000000  0   -3397336.445   -655094.534   5945908.487
10 0 59290  16062.000000  0   -2667072.213   -251409.274   6335409.750
10 0 59290  16182.000000  0   -1883264.370    143415.640   6613531.690
10 0 59290  16302.000000  0   -1059826.586    521673.568   6775417.328
10 0 59290  16422.000000  0    -211484.258    876199.940   6818242.583
10 0 59290  16542.000000  0     646488.778   1200506.923   6741262.083
10 0 59290  16662.000000  0    1498544.315   1488902.011   6545821.436
10 0 59290  16782.000000  0    2329140.778   1736588.289   6235334.751
10 0 59290  16902.000000  0    3123026.152   1939744.361   5815229.014
10 0 59290  17022.000000  0    3865520.397   2095583.646   5292855.137
10 0 59290  17142.000000  0    4542790.147   2202391.608   4677364.723
10 0 59290  17262.000000  0    5142111.613   2259541.475   3979556.668
10 0 59290  17382.000000  0    5652120.086   2267486.794   3211691.959
10 0 59290  17502.000000  0    6063033.422   2227729.425   2387276.674
10 0 59290  17622.000000  0    6366847.754   2142766.385   1520824.316
10 0 59290  17742.000000  0    6557501.662   2016014.450    627594.751
10 0 59290  17862.000000  0    6631001.245   1851714.692   -276682.079
10 0 59290  17982.000000  0    6585503.495   1654820.644  -1176092.717
10 0 59290  18102.000000  0    6421355.767   1430870.967  -2054827.759
10 0 59290  18222.000000  0    6141094.266   1185850.705  -2897466.755
10 0 59290  18342.000000  0    5749396.365    926045.118  -3689254.855
10 0 59290  18462.000000  0    5252990.750    657890.199  -4416362.962
10 0 59290  18582.000000  0    4660528.562    387823.375  -5066127.095
10 0 59290  18702.000000  0    3982420.546    122137.990  -5627262.046
10 0 59290  18822.000000  0    3230644.721   -133154.670  -6090048.306
10 0 59290  18942.000000  0    2418527.490   -372453.585  -6446490.541
10 0 59290  19062.000000  0    1560503.539   -590684.305  -6690443.373
10 0 59290  19182.000000  0     671860.857   -783401.239  -6817707.355
10 0 59290  19302.000000  0    -231528.929   -946873.966  -6826093.906
10 0 59290  19422.000000  0   -1133487.720  -1078156.306  -6715457.631
10 0 59290  19542.000000  0   -2017813.578  -1175138.071  -6487699.335
10 0 59290  19662.000000  0   -2868565.604  -1236578.230  -6146736.220
10 0 59290  19782.000000  0   -3670344.409  -1262119.345  -5698441.295
10 0 59290  19902.000000  0   -4408568.799  -1252283.554  -5150554.279
10 0 59290  20022.000000  0   -5069743.467  -1208449.221  -4512559.252
10 0 59290  20142.000000  0   -5641710.863  -1132808.935  -3795531.699
10 0 59290  20262.000000  0   -6113884.109  -1028309.326  -3011956.184
10 0 59290  20382.000000  0   -6477454.921   -898573.470  -2175515.231
10 0 59290  20502.000000  0   -6725570.376   -747807.362  -1300853.200
10 0 59290  20622.000000  0   -6853474.967   -580692.857   -403318.748
10 0 59290  20742.000000  0   -6858611.702   -402267.625    501310.528
10 0 59290  20862.000000  0   -6740679.033   -217797.001   1397112.164
10 0 59290  20982.000000  0   -6501643.838    -32641.293   2268307.958
10 0 59290  21102.000000  0   -6145707.838    147879.070   3099551.147
10 0 59290  21222.000000  0   -5679228.620    318616.950   3876205.048
10 0 59290  21342.000000  0   -5110597.370    474726.698   4584606.210
10 0 59290  21462.000000  0   -4450077.639    611783.653   5212306.865
10 0 59290  21582.000000  0   -3709609.939    725892.796   5748291.976
10 0 59290  21702.000000  0   -2902587.097    813783.677   6183169.544
10 0 59290  21822.000000  0   -2043604.232    872889.242   6509330.510
10 0 59290  21942.000000  0   -1148188.653    901408.468   6721076.463
10 0 59290  22062.000000  0    -232515.687    898350.614   6814712.158
10 0 59290  22182.000000  0     686883.469    863560.332   6788605.192
10 0 59290  22302.000000  0    1593419.028    797723.749   6643212.495
10 0 59290  22422.000000  0    2470740.780    702355.486   6381072.968
10 0 59290  22542.000000  0    3303032.599    579766.379   6006766.640
10 0 59290  22662.000000  0    4075299.858    433012.416   5526839.624
10 0 59290  22782.000000  0    4773643.171    265825.907   4949695.271
10 0 59290  22902.000000  0    5385514.436     82529.135   4285453.233
10 0 59290  23022.000000  0    5899951.390   -112066.647   3545777.156
10 0 59290  23142.000000  0    6307784.723   -312774.466   2743672.000
10 0 59290  23262.000000  0    6601811.693   -514155.752   1893253.716
10 0 59290  23382.000000  0    6776930.873   -710653.241   1009497.427
10 0 59290  23502.000000  0    6830237.894   -896727.405    107968.307
10 0 59290  23622.000000  0    6761077.598  -1066993.944   -795461.526
10 0 59290  23742.000000  0    6571048.569  -1216359.019  -1684901.907
10 0 59290  23862.000000  0    6263962.997  -1340148.035  -2544732.341
10 0 59290  23982.000000  0    5845761.888  -1434225.131  -3359882.411
10 0 59290  24102.000000  0    5324389.539  -1495100.301  -4116098.762
10 0 59290  24222.000000  0    4709630.797  -1520021.165  -4800193.497
10 0 59290  24342.000000  0    4012916.271  -1507048.113  -5400269.902
10 0 59290  24462.000000  0    3247099.430  -1455111.938  -5905921.924
10 0 59290  24582.000000  0    2426212.029  -1364051.916  -6308403.782
10 0 59290  24702.000000  0    1565204.134  -1234633.526  -6600770.241
10 0 59290  24822.000000  0     679671.551  -1068546.781  -6777985.751
10 0 59290  24942.000000  0    -214423.268   -868385.796  -6837001.909
10 0 59290  25062.000000  0   -1101033.083   -637608.701  -6776803.691
10 0 59290  25182.000000  0   -1964307.047   -380479.251  -6598425.432
10 0 59290  25302.000000  0   -2788867.888   -101990.015  -6304934.063
10 0 59290  25422.000000  0   -3560079.255    192230.643  -5901381.656
10 0 59290  25542.000000  0   -4264302.921    496027.628  -5394728.929
10 0 59290  25662.000000  0   -4889141.406    802841.993  -4793735.808
10 0 59290  25782.000000  0   -5423661.392   1105845.969  -4108822.760
99
